H1 CPF  1  DGF 2022 10 11 10  7841 larets     NONE      
H2   304206 5557    27944 2022 10 11 00 00 00 2022 10 18 00 00 00    30 1 1  0 0 0
H5  0.0650
H9
10 0 59863  39600.000000  0       3740735.014       3035337.799      -5165328.680
10 0 59863  39630.000000  0       3649811.819       2887576.409      -5312793.286
10 0 59863  39660.000000  0       3554547.142       2737303.381      -5454847.645
10 0 59863  39690.000000  0       3455027.191       2584689.832      -5591347.883
10 0 59863  39720.000000  0       3351343.191       2429908.810      -5722155.814
10 0 59863  39750.000000  0       3243591.297       2273135.088      -5847139.064
10 0 59863  39780.000000  0       3131872.503       2114544.971      -5966171.207
10 0 59863  39810.000000  0       3016292.535       1954316.090      -6079131.883
10 0 59863  39840.000000  0       2896961.758       1792627.204      -6185906.909
10 0 59863  39870.000000  0       2773995.057       1629658.005      -6286388.387
10 0 59863  39900.000000  0       2647511.730       1465588.911      -6380474.809
10 0 59863  39930.000000  0       2517635.368       1300600.875      -6468071.151
10 0 59863  39960.000000  0       2384493.735       1134875.179      -6549088.956
10 0 59863  39990.000000  0       2248218.639        968593.241      -6623446.424
10 0 59863  40020.000000  0       2108945.800        801936.417      -6691068.480
10 0 59863  40050.000000  0       1966814.725        635085.806      -6751886.855
10 0 59863  40080.000000  0       1821968.561        468222.058      -6805840.143
10 0 59863  40110.000000  0       1674553.952        301525.176      -6852873.871
10 0 59863  40140.000000  0       1524720.890        135174.324      -6892940.547
10 0 59863  40170.000000  0       1372622.559        -30652.368      -6925999.705
10 0 59863  40200.000000  0       1218415.174       -195777.989      -6952017.935
10 0 59863  40230.000000  0       1062257.828       -360027.040      -6970968.918
10 0 59863  40260.000000  0        904312.325       -523225.609      -6982833.444
10 0 59863  40290.000000  0        744743.016       -685201.558      -6987599.431
10 0 59863  40320.000000  0        583716.633       -845784.700      -6985261.937
10 0 59863  40350.000000  0        421402.116      -1004806.975      -6975823.161
10 0 59863  40380.000000  0        257970.435      -1162102.621      -6959292.446
10 0 59863  40410.000000  0         93594.422      -1317508.344      -6935686.268
10 0 59863  40440.000000  0        -71551.417      -1470863.488      -6905028.225
10 0 59863  40470.000000  0       -237291.080      -1622010.196      -6867349.024
10 0 59863  40500.000000  0       -403447.260      -1770793.574      -6822686.444
10 0 59863  40530.000000  0       -569841.530      -1917061.854      -6771085.312
10 0 59863  40560.000000  0       -736294.537      -2060666.546      -6712597.453
10 0 59863  40590.000000  0       -902626.186      -2201462.589      -6647281.649
10 0 59863  40620.000000  0      -1068655.840      -2339308.500      -6575203.576
10 0 59863  40650.000000  0      -1234202.511      -2474066.514      -6496435.748
10 0 59863  40680.000000  0      -1399085.052      -2605602.725      -6411057.446
10 0 59863  40710.000000  0      -1563122.356      -2733787.214      -6319154.652
10 0 59863  40740.000000  0      -1726133.551      -2858494.183      -6220819.961
10 0 59863  40770.000000  0      -1887938.202      -2979602.081      -6116152.504
10 0 59863  40800.000000  0      -2048356.505      -3096993.722      -6005257.852
10 0 59863  40830.000000  0      -2207209.490      -3210556.405      -5888247.920
10 0 59863  40860.000000  0      -2364319.221      -3320182.027      -5765240.862
10 0 59863  40890.000000  0      -2519508.997      -3425767.188      -5636360.965
10 0 59863  40920.000000  0      -2672603.555      -3527213.298      -5501738.523
10 0 59863  40950.000000  0      -2823429.270      -3624426.672      -5361509.715
10 0 59863  40980.000000  0      -2971814.356      -3717318.621      -5215816.472
10 0 59863  41010.000000  0      -3117589.063      -3805805.536      -5064806.337
10 0 59863  41040.000000  0      -3260585.871      -3889808.969      -4908632.323
10 0 59863  41070.000000  0      -3400639.690      -3969255.706      -4747452.765
10 0 59863  41100.000000  0      -3537588.048      -4044077.834      -4581431.160
10 0 59863  41130.000000  0      -3671271.289      -4114212.807      -4410736.009
10 0 59863  41160.000000  0      -3801532.757      -4179603.496      -4235540.652
10 0 59863  41190.000000  0      -3928218.988      -4240198.245      -4056023.094
10 0 59863  41220.000000  0      -4051179.893      -4295950.914      -3872365.827
10 0 59863  41250.000000  0      -4170268.942      -4346820.914      -3684755.647
10 0 59863  41280.000000  0      -4285343.345      -4392773.241      -3493383.467
10 0 59863  41310.000000  0      -4396264.221      -4433778.501      -3298444.119
10 0 59863  41340.000000  0      -4502896.778      -4469812.924      -3100136.159
10 0 59863  41370.000000  0      -4605110.473      -4500858.380      -2898661.661
10 0 59863  41400.000000  0      -4702779.181      -4526902.380      -2694226.012
10 0 59863  41430.000000  0      -4795781.349      -4547938.074      -2487037.701
10 0 59863  41460.000000  0      -4884000.159      -4563964.245      -2277308.104
10 0 59863  41490.000000  0      -4967323.667      -4574985.293      -2065251.265
10 0 59863  41520.000000  0      -5045644.955      -4581011.209      -1851083.670
10 0 59863  41550.000000  0      -5118862.266      -4582057.553      -1635024.027
10 0 59863  41580.000000  0      -5186879.139      -4578145.414      -1417293.035
10 0 59863  41610.000000  0      -5249604.531      -4569301.368      -1198113.152
10 0 59863  41640.000000  0      -5306952.946      -4555557.432       -977708.369
10 0 59863  41670.000000  0      -5358844.545      -4536951.009       -756303.966
10 0 59863  41700.000000  0      -5405205.261      -4513524.825       -534126.282
10 0 59863  41730.000000  0      -5445966.894      -4485326.865       -311402.471
10 0 59863  41760.000000  0      -5481067.210      -4452410.294        -88360.265
10 0 59863  41790.000000  0      -5510450.032      -4414833.383        134772.269
10 0 59863  41820.000000  0      -5534065.312      -4372659.418        357766.970
10 0 59863  41850.000000  0      -5551869.214      -4325956.609        580395.825
10 0 59863  41880.000000  0      -5563824.174      -4274797.991        802431.213
10 0 59863  41910.000000  0      -5569898.959      -4219261.319       1023646.142
10 0 59863  41940.000000  0      -5570068.720      -4159428.957       1243814.492
10 0 59863  41970.000000  0      -5564315.027      -4095387.765       1462711.251
10 0 59863  42000.000000  0      -5552625.916      -4027228.976       1680112.750
10 0 59863  42030.000000  0      -5534995.908      -3955048.071       1895796.902
10 0 59863  42060.000000  0      -5511426.034      -3878944.651       2109543.431
10 0 59863  42090.000000  0      -5481923.842      -3799022.299       2321134.102
10 0 59863  42120.000000  0      -5446503.409      -3715388.446       2530352.952
10 0 59863  42150.000000  0      -5405185.330      -3628154.227       2736986.509
10 0 59863  42180.000000  0      -5357996.714      -3537434.333       2940824.015
10 0 59863  42210.000000  0      -5304971.164      -3443346.865       3141657.648
10 0 59863  42240.000000  0      -5246148.750      -3346013.179       3339282.731
10 0 59863  42270.000000  0      -5181575.979      -3245557.729       3533497.950
10 0 59863  42300.000000  0      -5111305.754      -3142107.904       3724105.557
10 0 59863  42330.000000  0      -5035397.319      -3035793.869       3910911.574
10 0 59863  42360.000000  0      -4953916.208      -2926748.398       4093725.988
10 0 59863  42390.000000  0      -4866934.178      -2815106.704       4272362.944
10 0 59863  42420.000000  0      -4774529.139      -2701006.273       4446640.926
10 0 59863  42450.000000  0      -4676785.080      -2584586.692       4616382.941
10 0 59863  42480.000000  0      -4573791.985      -2465989.481       4781416.694
10 0 59863  42510.000000  0      -4465645.745      -2345357.916       4941574.754
10 0 59863  42540.000000  0      -4352448.062      -2222836.861       5096694.726
10 0 59863  42570.000000  0      -4234306.346      -2098572.589       5246619.405
10 0 59863  42600.000000  0      -4111333.611      -1972712.612       5391196.932
10 0 59863  42630.000000  0      -3983648.362      -1845405.504       5530280.944
10 0 59863  42660.000000  0      -3851374.472      -1716800.728       5663730.715
10 0 59863  42690.000000  0      -3714641.060      -1587048.457       5791411.302
10 0 59863  42720.000000  0      -3573582.355      -1456299.396       5913193.668
10 0 59863  42750.000000  0      -3428337.559      -1324704.614       6028954.806
10 0 59863  42780.000000  0      -3279050.708      -1192415.360       6138577.863
10 0 59863  42810.000000  0      -3125870.516      -1059582.896       6241952.248
10 0 59863  42840.000000  0      -2968950.228       -926358.320       6338973.733
10 0 59863  42870.000000  0      -2808447.460       -792892.395       6429544.555
10 0 59863  42900.000000  0      -2644524.035       -659335.378       6513573.501
10 0 59863  42930.000000  0      -2477345.815       -525836.853       6590975.995
10 0 59863  42960.000000  0      -2307082.535       -392545.569       6661674.170
10 0 59863  42990.000000  0      -2133907.626       -259609.278       6725596.941
10 0 59863  43020.000000  0      -1957998.040       -127174.570       6782680.068
10 0 59863  43050.000000  0      -1779534.068          4613.277       6832866.221
10 0 59863  43080.000000  0      -1598699.159        135610.463       6876105.026
10 0 59863  43110.000000  0      -1415679.730        265674.815       6912353.114
10 0 59863  43140.000000  0      -1230664.975        394665.941       6941574.163
10 0 59863  43170.000000  0      -1043846.672        522445.382       6963738.925
99
